{
    "links": {
        "self": "http://www.neowsapp.com/rest/v1/neo/3729848?api_key=iIulBulltgU6a56xZRHN4H3l9WmuAYTsLGpBGhQ2"
    },
    "id": "3729848",
    "neo_reference_id": "3729848",
    "name": "(2015 TM145)",
    "designation": "2015 TM145",
    "nasa_jpl_url": "http://ssd.jpl.nasa.gov/sbdb.cgi?sstr=3729848",
    "absolute_magnitude_h": 24.7,
    "estimated_diameter": {
        "kilometers": {
            "estimated_diameter_min": 0.0305179233,
            "estimated_diameter_max": 0.0682401509
        },
        "meters": {
            "estimated_diameter_min": 30.5179232594,
            "estimated_diameter_max": 68.2401509401
        },
        "miles": {
            "estimated_diameter_min": 0.0189629525,
            "estimated_diameter_max": 0.0424024508
        },
        "feet": {
            "estimated_diameter_min": 100.1244233463,
            "estimated_diameter_max": 223.8850168104
        }
    },
    "is_potentially_hazardous_asteroid": false,
    "close_approach_data": [
        {
            "close_approach_date": "2015-10-07",
            "close_approach_date_full": "2015-Oct-07 11:47",
            "epoch_date_close_approach": 1444218420000,
            "relative_velocity": {
                "kilometers_per_second": "21.5625166628",
                "kilometers_per_hour": "77625.0599860465",
                "miles_per_hour": "48233.1935229965"
            },
            "miss_distance": {
                "astronomical": "0.0109454826",
                "lunar": "4.2577927314",
                "kilometers": "1637420.883082062",
                "miles": "1017446.1571419756"
            },
            "orbiting_body": "Earth"
        }
    ],
    "orbital_data": {
        "orbit_id": "6",
        "orbit_determination_date": "2017-04-06 08:31:25",
        "first_observation_date": "2015-10-12",
        "last_observation_date": "2015-10-19",
        "data_arc_in_days": 7,
        "observations_used": 36,
        "orbit_uncertainty": "8",
        "minimum_orbit_intersection": ".00527165",
        "jupiter_tisserand_invariant": "3.603",
        "epoch_osculation": "2457308.5",
        "eccentricity": ".6271644460696183",
        "semi_major_axis": "1.903093246672384",
        "inclination": "22.80303979327901",
        "ascending_node_longitude": "12.5590465527824",
        "orbital_period": "958.9335844238639",
        "perihelion_distance": ".7095408248042668",
        "perihelion_argument": "285.2663646460473",
        "aphelion_distance": "3.096645668540501",
        "perihelion_time": "2457257.178656162772",
        "mean_anomaly": "19.26690657362099",
        "mean_motion": ".375417031844068",
        "equinox": "J2000",
        "orbit_class": {
            "orbit_class_type": "APO",
            "orbit_class_description": "Near-Earth asteroid orbits which cross the Earth’s orbit similar to that of 1862 Apollo",
            "orbit_class_range": "a (semi-major axis) > 1.0 AU; q (perihelion) < 1.017 AU"
        }
    },
    "is_sentry_object": false
}